SCD 1                   
1 22490U 93009B   26170.45153556  .00000315  00000+0  35137-4 0  9999
2 22490  24.9676 193.5957 0041988 161.6065 309.1420 14.46119450761443
TECHSAT 1B (GO-32)      
1 25397U 98043D   26170.59313746  .00000028  00000+0  32334-4 0  9992
2 25397  99.0068 163.4125 0001179 158.0468 202.0760 14.24428772451673
SCD 2                   
1 25504U 98060A   26170.39400902  .00000344  00000+0  45162-4 0  9994
2 25504  24.9958  58.5474 0016878 145.9714  14.9585 14.45526591460643
DLR-TUBSAT              
1 25757U 99029B   26170.56680821  .00000044  00000+0  22764-4 0  9999
2 25757  98.6695 166.1492 0013897 347.9099  12.1760 14.52427292433598
TERRA                   
1 25994U 99068A   26170.83479081  .00000280  00000+0  65954-4 0  9999
2 25994  97.9455 220.2761 0001794 180.7116 290.3112 14.61104873409999
MAROC-TUBSAT            
1 27004U 01056D   26170.40368377 -.00000038  00000+0  10254-4 0  9996
2 27004  99.8084 347.3050 0020393 135.7462 246.4760 13.70262508226496
AQUA                    
1 27424U 02022A   26170.85395465  .00000565  00000+0  12222-3 0  9993
2 27424  98.4277 140.1900 0001000  54.7538 335.1578 14.62161415283664
SHIYAN-1 (SY-1)         
1 28220U 04012A   26170.72796284  .00011158  00000+0  34357-3 0  9992
2 28220  97.8686 248.9617 0005346  24.0812 336.0678 15.33814474211481
AURA                    
1 28376U 04026A   26170.86189670  .00000581  00000+0  12734-3 0  9992
2 28376  98.3417 127.3374 0001185  77.0726 283.0607 14.61332480166608
IRS-P5 (CARTOSAT-1)     
1 28649U 05017A   26170.56130881  .00000994  00000+0  10570-3 0  9997
2 28649  97.5306 193.5182 0002532  77.0281 283.1221 14.91054422144175
SINAH 1                 
1 28893U 05043D   26170.85606716  .00000229  00000+0  52968-4 0  9993
2 28893  98.2865 305.1937 0013135 267.5880  92.3818 14.64159104100914
RESURS-DK 1             
1 29228U 06021A   26170.48117437  .00001551  00000+0  93164-4 0  9991
2 29228  69.9330 333.6151 0006880 290.7888  69.2541 15.13225616102924
ARIRANG-2 (KOMPSAT-2)   
1 29268U 06031A   26170.83250223  .00000271  00000+0  59373-4 0  9998
2 29268  97.8306 355.1507 0015883  67.0907  56.9967 14.64661564 61868
LAPAN-TUBSAT            
1 29709U 07001A   26170.81319659  .00000251  00000+0  35303-4 0  9998
2 29709  98.1341 170.0966 0012107 170.7462 189.3978 14.85950772 51540
HAIYANG-1B              
1 31113U 07010A   26170.59201378  .00000065  00000+0  40663-4 0  9991
2 31113  98.3495 152.3440 0013180 188.9814 171.1136 14.31027414   984
COSMO-SKYMED 1          
1 31598U 07023A   26170.80848988  .00002255  00000+0  20060-3 0  9991
2 31598  97.8850   2.6860 0001499  98.2997 261.8394 14.97110711 30181
TERRASAR-X              
1 31698U 07026A   26170.49711592  .00000145  00000+0  10104-4 0  9995
2 31698  97.4452 178.1696 0001572  90.3933 269.7482 15.19151206 53579
WORLDVIEW-1 (WV-1)      
1 32060U 07041A   26170.58971259  .00004705  00000+0  19552-3 0  9995
2 32060  97.3882 290.2989 0002013  13.3798 346.7492 15.24288482 43248
YAOGAN-3                
1 32289U 07055A   26170.87927828  .00000822  00000+0  89281-4 0  9991
2 32289  97.8145 200.7303 0001742  81.8629 278.2786 14.90785958  6274
COSMO-SKYMED 2          
1 32376U 07059A   26170.86146616  .00000269  00000+0  40322-4 0  9997
2 32376  97.8887 354.4205 0001360  88.1454 271.9915 14.82156816  2405
RADARSAT-2              
1 32382U 07061A   26170.83664829 -.00000079  00000+0 -13820-4 0  9999
2 32382  98.5775 177.7315 0001311  84.9571 275.1761 14.29981913966335
CARTOSAT-2A             
1 32783U 08021A   26170.88755536  .00000313  00000+0  48811-4 0  9999
2 32783  97.7626 219.5043 0013237 101.0865 259.1836 14.79240850979204
HUANJING 1A (HJ-1A)     
1 33320U 08041A   26170.86342483  .00001223  00000+0  15263-3 0  9995
2 33320  97.6685 156.5986 0020197 126.3666 233.9416 14.83992527958801
HUANJING 1B (HJ-1B)     
1 33321U 08041B   26170.90117235 -.00000103  00000+0 -60818-5 0  9992
2 33321  97.6521 159.7982 0036274 172.0353 188.1445 14.83317865958816
GEOEYE 1                
1 33331U 08042A   26170.81611184  .00000323  00000+0  69646-4 0  9995
2 33331  98.1236 244.7141 0005316  63.2430 296.9316 14.64727735950534
THEOS                   
1 33396U 08049A   26170.85754889  .00000057  00000+0  46568-4 0  9999
2 33396  98.5564 228.0548 0001179  81.3933 278.7377 14.20133345918349
COSMO-SKYMED 3          
1 33412U 08054A   26170.79917005  .00002829  00000+0  19315-3 0  9996
2 33412  97.8280  29.4125 0013966 256.5354 103.4316 15.06966952957331
YAOGAN-4                
1 33446U 08061A   26170.73068558  .00000768  00000+0  10051-3 0  9993
2 33446  97.9306 104.2222 0015646  64.9236 295.3600 14.83204176946045
GOSAT (IBUKI)           
1 33492U 09002A   26170.72927778  .00000824  00000+0  15380-3 0  9990
2 33492  98.0889 281.7781 0001480  80.5737 279.5634 14.67540024931835
DEIMOS-1                
1 35681U 09041A   26170.83162215  .00000580  00000+0  92871-4 0  9994
2 35681  97.7409 327.9442 0001773 127.9249 232.2121 14.75240585907273
